[{"OBJECT_NAME":"SPACEMOBILE-002","OBJECT_ID":"2024-163D","EPOCH":"2026-03-09T08:46:52.476096","MEAN_MOTION":15.21108485,"ECCENTRICITY":0.00071237,"INCLINATION":52.9822,"RA_OF_ASC_NODE":48.2355,"ARG_OF_PERICENTER":175.9464,"MEAN_ANOMALY":184.159,"EPHEMERIS_TYPE":0,"CLASSIFICATION_TYPE":"U","NORAD_CAT_ID":61048,"ELEMENT_SET_NO":999,"REV_AT_EPOCH":8257,"BSTAR":0.00072579441,"MEAN_MOTION_DOT":0.00016068,"MEAN_MOTION_DDOT":0},{"OBJECT_NAME":"SCORPION (RS89S)","OBJECT_ID":"2025-313AX","EPOCH":"2026-03-09T23:09:54.194112","MEAN_MOTION":15.2196038,"ECCENTRICITY":0.00105059,"INCLINATION":97.4004,"RA_OF_ASC_NODE":145.3058,"ARG_OF_PERICENTER":344.4953,"MEAN_ANOMALY":15.596,"EPHEMERIS_TYPE":0,"CLASSIFICATION_TYPE":"U","NORAD_CAT_ID":67293,"ELEMENT_SET_NO":999,"REV_AT_EPOCH":1086,"BSTAR":0.00025386995,"MEAN_MOTION_DOT":5.728e-5,"MEAN_MOTION_DDOT":0}]
